STARLINK-32088          
1 59693U 24086M   26067.99786842 -.00000600  00000+0 -12278-4 0  9997
2 59693  43.0040  56.2538 0001937 282.4203  77.6432 15.27571863104093
FLOCK 4G-8              
1 62613U 25009E   26068.72381419  .00013559  00000+0  50438-3 0  9996
2 62613  97.4045 151.2834 0003050 315.2538  44.8455 15.27623414 63721
